SHIJIAN-6 02B (SJ-6 02B)
1 29506U 06046B   26115.95898414  .00001595  00000+0  12887-3 0  9999
2 29506  97.7141 145.3467 0010975 240.5475 119.4654 15.01212188 62908
FGRST (GLAST)           
1 33053U 08029A   26115.57895805  .00003267  00000+0  11873-3 0  9995
2 33053  25.5812 209.6846 0008711  67.8410 292.3052 15.23657127987801
SDO                     
1 36395U 10005A   26115.41578257 -.00000060  00000+0  00000+0 0  9991
2 36395  34.5445  87.1361 0001119  34.5839 139.6162  1.00272610 59532
CRYOSAT 2               
1 36508U 10013A   26115.90898563  .00000224  00000+0  54770-4 0  9994
2 36508  92.0288 264.6134 0002665  92.9973 267.1539 14.51905127850491
X-SAT                   
1 37389U 11015C   26115.92220514  .00000253  00000+0  12504-3 0  9992
2 37389  98.3487  95.4463 0014799 132.6624 227.5807 14.25190222780235
GCOM-W1 (SHIZUKU)       
1 38337U 12025A   26115.84401260  .00000509  00000+0  12294-3 0  9998
2 38337  98.1993  57.2026 0001271  94.0637 328.2771 14.57119336741414
NUSTAR                  
1 38358U 12031A   26116.00003472  .00014487  00000+0  85146-3 0  9996
2 38358   6.0260  65.4402 0007357  48.1744 249.6156 15.08286642  4429
NEOSSAT                 
1 39089U 13009D   26115.94434367  .00000150  00000+0  66560-4 0  9999
2 39089  98.4170 297.2217 0011853  46.9457 313.2720 14.35807667689247
BRITE-AUSTRIA           
1 39091U 13009F   26115.48133349  .00000171  00000+0  72827-4 0  9993
2 39091  98.3985 296.2244 0010956  42.9850 317.2191 14.36520130689488
IRIS                    
1 39197U 13033A   26115.63687601  .00000955  00000+0  11572-3 0  9998
2 39197  97.9370 315.0725 0025568 128.9128 231.4373 14.85771907692577
HISAKI (SPRINT-A)       
1 39253U 13049A   26115.69047898  .00000133  00000+0  92065-4 0  9997
2 39253  29.7186 126.9034 0136629 311.2903  47.5975 13.55537782624294
CASSIOPE                
1 39265U 13055A   26115.87091324  .00025698 -40626-6  30038-3 0  9990
2 39265  80.9135 130.0647 0303084 237.9185 119.2295 15.21742236659706
STSAT-3                 
1 39422U 13066G   26115.90342134  .00003791  00000+0  29022-3 0  9994
2 39422  97.6186  86.6741 0008741 192.6235 167.4773 15.02447339676359
SWARM B                 
1 39451U 13067A   26115.88565559  .00003688  00000+0  13289-3 0  9995
2 39451  87.7483 358.1971 0002377  91.2975 268.8546 15.28238184675253
SWARM A                 
1 39452U 13067B   26115.93810839  .00013485  00000+0  24128-3 0  9996
2 39452  87.3305  75.6297 0003698  89.4202 270.7483 15.49844029698154
SWARM C                 
1 39453U 13067C   26115.87347918  .00013419  00000+0  24009-3 0  9998
2 39453  87.3307  74.2349 0003711  89.7083 270.4603 15.49843384698105
BRITE-CA1 (TORONTO)     
1 40020U 14033L   26115.92327335  .00001043  00000+0  16376-3 0  9999
2 40020  97.9657 245.8412 0080058  84.4504 276.5828 14.72596954634523
